{
    "links": {
        "self": "http://www.neowsapp.com/rest/v1/neo/3843782?api_key=iIulBulltgU6a56xZRHN4H3l9WmuAYTsLGpBGhQ2"
    },
    "id": "3843782",
    "neo_reference_id": "3843782",
    "name": "(2019 RD1)",
    "designation": "2019 RD1",
    "nasa_jpl_url": "http://ssd.jpl.nasa.gov/sbdb.cgi?sstr=3843782",
    "absolute_magnitude_h": 26.9,
    "estimated_diameter": {
        "kilometers": {
            "estimated_diameter_min": 0.0110803882,
            "estimated_diameter_max": 0.0247765013
        },
        "meters": {
            "estimated_diameter_min": 11.0803882126,
            "estimated_diameter_max": 24.7765012606
        },
        "miles": {
            "estimated_diameter_min": 0.0068850319,
            "estimated_diameter_max": 0.0153953994
        },
        "feet": {
            "estimated_diameter_min": 36.3529808636,
            "estimated_diameter_max": 81.2877363957
        }
    },
    "is_potentially_hazardous_asteroid": false,
    "close_approach_data": [
        {
            "close_approach_date": "2019-09-06",
            "close_approach_date_full": "2019-Sep-06 01:10",
            "epoch_date_close_approach": 1567732200000,
            "relative_velocity": {
                "kilometers_per_second": "7.0624587114",
                "kilometers_per_hour": "25424.8513609794",
                "miles_per_hour": "15798.013891493"
            },
            "miss_distance": {
                "astronomical": "0.015697756",
                "lunar": "6.106427084",
                "kilometers": "2348350.86137972",
                "miles": "1459197.561371336"
            },
            "orbiting_body": "Earth"
        },
        {
            "close_approach_date": "2058-11-10",
            "close_approach_date_full": "2058-Nov-10 16:29",
            "epoch_date_close_approach": 2804171340000,
            "relative_velocity": {
                "kilometers_per_second": "20.0788613523",
                "kilometers_per_hour": "72283.9008681241",
                "miles_per_hour": "44914.404958863"
            },
            "miss_distance": {
                "astronomical": "0.4994548433",
                "lunar": "194.2879340437",
                "kilometers": "74717380.718863771",
                "miles": "46427227.5195551998"
            },
            "orbiting_body": "Earth"
        }
    ],
    "orbital_data": {
        "orbit_id": "2",
        "orbit_determination_date": "2019-09-06 06:02:27",
        "first_observation_date": "2019-09-05",
        "last_observation_date": "2019-09-06",
        "data_arc_in_days": 1,
        "observations_used": 44,
        "orbit_uncertainty": "7",
        "minimum_orbit_intersection": ".0157318",
        "jupiter_tisserand_invariant": "4.139",
        "epoch_osculation": "2459000.5",
        "eccentricity": ".3928031371419396",
        "semi_major_axis": "1.675418992586393",
        "inclination": "8.169969606663637",
        "ascending_node_longitude": "162.4151681616007",
        "orbital_period": "792.1065022219062",
        "perihelion_distance": "1.01730915627127",
        "perihelion_argument": "192.453003625941",
        "aphelion_distance": "2.333528828901517",
        "perihelion_time": "2458742.961375150339",
        "mean_anomaly": "117.0472716557811",
        "mean_motion": ".4544843388990981",
        "equinox": "J2000",
        "orbit_class": {
            "orbit_class_type": "AMO",
            "orbit_class_description": "Near-Earth asteroid orbits similar to that of 1221 Amor",
            "orbit_class_range": "1.017 AU < q (perihelion) < 1.3 AU"
        }
    },
    "is_sentry_object": false
}